NORAD_CAT_ID,OBJECT_NAME,OBJECT_TYPE,EPOCH,MEAN_MOTION,ECCENTRICITY,INCLINATION,RA_OF_ASC_NODE,ARG_OF_PERICENTER,MEAN_ANOMALY,BSTAR,MEAN_MOTION_DOT,MEAN_MOTION_DDOT,TLE_LINE0,TLE_LINE1,TLE_LINE2,SEMIMAJOR_AXIS,PERIOD,APOGEE,PERIGEE,DECAYED
55661.0,STARLINK-5475,PAYLOAD,2023-09-22 12:04:10,14.9886695,0.0003028,69.9993,271.6796,268.2191,91.8622,0.004022,0.00048909,0.0,0 STARLINK-5475,1 55661U 23021AK  23265.50289911  .00048909  00000-0  40220-2 0  9994,2 55661  69.9993 271.6796 0003028 268.2191  91.8622 14.98866950 34595,6948.533,96.073,572.502,568.294,0.0
55661.0,STARLINK-5475,PAYLOAD,2023-09-22 18:28:32,14.98896748,0.0003029,69.9991,271.0059,266.6652,93.416,0.0037565,0.00045689,0.0,0 STARLINK-5475,1 55661U 23021AK  23265.76982514  .00045689  00000-0  37565-2 0  9991,2 55661  69.9991 271.0059 0003029 266.6652  93.4160 14.98896748 34632,6948.441,96.071,572.411,568.201,0.0
55661.0,STARLINK-5475,PAYLOAD,2023-09-23 02:28:57,14.99039757,0.0003096,69.9991,270.1636,275.2022,84.8784,0.0016369,0.00019857,0.0,0 STARLINK-5475,1 55661U 23021AK  23266.10344674  .00019857  00000-0  16369-2 0  9996,2 55661  69.9991 270.1636 0003096 275.2022  84.8784 14.99039757 34382,6947.999,96.061,572.015,567.713,0.0
55661.0,STARLINK-5475,PAYLOAD,2023-09-23 10:29:22,14.99114593,0.0002796,69.9991,269.3213,258.7444,101.3402,0.00052283,6.278e-05,0.0,0 STARLINK-5475,1 55661U 23021AK  23266.43706333  .00006278  00000-0  52283-3 0  9995,2 55661  69.9991 269.3213 0002796 258.7444 101.3402 14.99114593 34433,6947.768,96.057,571.575,567.69,0.0
55661.0,STARLINK-5475,PAYLOAD,2023-09-23 22:00:01,14.99106877,0.0003118,70.001,268.11,266.9141,160.9367,0.0054161,0.00066473,0.0,0 STARLINK-5475,1 55661U 23021AK  23266.91668981  .00066473  00000-0  54161-2 0  9993,2 55661  70.0010 268.1100 0003118 266.9141 160.9367 14.99106877 34509,6947.792,96.057,571.823,567.49,0.0
55661.0,STARLINK-5475,PAYLOAD,2023-09-24 02:30:11,14.99136901,0.0002935,69.9993,267.6367,270.0392,90.0431,9.3832e-06,2.1e-07,0.0,0 STARLINK-5475,1 55661U 23021AK  23267.10430475  .00000021  00000-0  93832-5 0  9998,2 55661  69.9993 267.6367 0002935 270.0392  90.0431 14.99136901 34534,6947.699,96.055,571.603,567.525,0.0
55661.0,STARLINK-5475,PAYLOAD,2023-09-24 10:30:36,14.99136876,0.0002896,69.9995,266.7944,271.5733,88.5095,2.2971e-05,1.86e-06,0.0,0 STARLINK-5475,1 55661U 23021AK  23267.43792473  .00000186  00000-0  22971-4 0  9990,2 55661  69.9995 266.7944 0002896 271.5733  88.5095 14.99136876 34885,6947.699,96.055,571.576,567.552,0.0
55661.0,STARLINK-5475,PAYLOAD,2023-09-25 02:31:25,14.99141945,0.0002905,69.9995,265.1099,270.6508,89.4319,-1.9434e-05,-3.31e-06,0.0,0 STARLINK-5475,1 55661U 23021AK  23268.10516177 -.00000331  00000-0 -19434-4 0  9994,2 55661  69.9995 265.1099 0002905 270.6508  89.4319 14.99141945 34680,6947.683,96.055,571.566,567.53,0.0
55661.0,STARLINK-5475,PAYLOAD,2023-09-25 08:55:45,14.99143285,0.0002875,69.9996,264.4362,268.3764,91.7067,-2.5564e-06,-1.25e-06,0.0,0 STARLINK-5475,1 55661U 23021AK  23268.37205565 -.00000125  00000-0 -25564-5 0  9992,2 55661  69.9996 264.4362 0002875 268.3764  91.7067 14.99143285 35024,6947.679,96.055,571.541,567.547,0.0
55661.0,STARLINK-5475,PAYLOAD,2023-09-25 16:56:10,14.99142767,0.0002905,69.9996,263.5939,269.0548,91.0279,6.4494e-06,-1.5e-07,0.0,0 STARLINK-5475,1 55661U 23021AK  23268.70567465 -.00000015  00000-0  64494-5 0  9991,2 55661  69.9996 263.5939 0002905 269.0548  91.0279 14.99142767 35073,6947.681,96.055,571.564,567.527,0.0
55661.0,STARLINK-5475,PAYLOAD,2023-09-26 02:32:40,14.99139965,0.0002943,69.9996,262.5832,269.3029,90.7794,2.6508e-05,2.29e-06,0.0,0 STARLINK-5475,1 55661U 23021AK  23269.10601886  .00000229  00000-0  26508-4 0  9991,2 55661  69.9996 262.5832 0002943 269.3029  90.7794 14.99139965 34830,6947.689,96.055,571.599,567.51,0.0
55661.0,STARLINK-5475,PAYLOAD,2023-09-26 08:56:59,14.99142213,0.0002913,69.9996,261.9095,269.0468,91.0358,5.0252e-05,5.19e-06,0.0,0 STARLINK-5475,1 55661U 23021AK  23269.37291229  .00000519  00000-0  50252-4 0  9991,2 55661  69.9996 261.9095 0002913 269.0468  91.0358 14.99142213 35173,6947.682,96.055,571.571,567.523,0.0
55661.0,STARLINK-5475,PAYLOAD,2023-09-27 08:58:14,14.99135281,0.000289,69.9995,259.3827,267.8078,92.275,-5.463e-05,-7.59e-06,0.0,0 STARLINK-5475,1 55661U 23021AK  23270.37377937 -.00000759  00000-0 -54630-4 0  9996,2 55661  69.9995 259.3827 0002890 267.8078  92.2750 14.99135281 35023,6947.704,96.055,571.577,567.561,0.0
55661.0,STARLINK-5475,PAYLOAD,2023-09-28 08:59:30,14.99114271,0.0002947,69.9994,256.8553,271.3683,88.7138,-0.00027541,-3.446e-05,0.0,0 STARLINK-5475,1 55661U 23021AK  23271.37466205 -.00003446  00000-0 -27541-3 0  9990,2 55661  69.9994 256.8553 0002947 271.3683  88.7138 14.99114271 35177,6947.769,96.057,571.681,567.586,0.0
55661.0,STARLINK-5475,PAYLOAD,2023-09-29 09:01:23,14.98707327,0.0002739,69.9996,254.3286,276.2598,83.8249,-0.0043067,-0.00051604,0.0,0 STARLINK-5475,1 55661U 23021AK  23272.37596528 -.00051604  00000-0 -43067-2 0  9992,2 55661  69.9996 254.3286 0002739 276.2598  83.8249 14.98707327 35328,6949.026,96.083,572.795,568.988,0.0
55661.0,STARLINK-5475,PAYLOAD,2023-09-29 13:49:45,14.98662578,0.000289,69.9996,253.8267,274.0049,86.078,-0.004121,-0.00049342,0.0,0 STARLINK-5475,1 55661U 23021AK  23272.57622683 -.00049342  00000-0 -41210-2 0  9990,2 55661  69.9996 253.8267 0002890 274.0049  86.0780 14.98662578 35655,6949.165,96.086,573.038,569.021,0.0
55661.0,STARLINK-5475,PAYLOAD,2023-09-30 04:14:48,14.98623452,0.0002884,69.999,252.3107,263.0712,97.0119,-0.0041905,-0.00050116,0.0,0 STARLINK-5475,1 55661U 23021AK  23273.17695239 -.00050116  00000-0 -41905-2 0  9996,2 55661  69.9990 252.3107 0002884 263.0712  97.0119 14.98623452 35740,6949.286,96.088,573.155,569.146,0.0
55661.0,STARLINK-5475,PAYLOAD,2023-10-01 02:40:34,14.98378853,0.0002611,69.9996,249.9547,275.74,84.3461,-0.00078121,-9.413e-05,0.0,0 STARLINK-5475,1 55661U 23021AK  23274.11150529 -.00009413  00000-0 -78121-3 0  9994,2 55661  69.9996 249.9547 0002611 275.7400  84.3461 14.98378853 35581,6950.042,96.104,573.721,570.092,0.0
55661.0,STARLINK-5475,PAYLOAD,2023-10-01 09:05:05,14.9835729,0.0002349,69.9999,249.2807,277.5501,82.5391,-0.0003718,-4.529e-05,0.0,0 STARLINK-5475,1 55661U 23021AK  23274.37854026 -.00004529  00000-0 -37180-3 0  9998,2 55661  69.9999 249.2807 0002349 277.5501  82.5391 14.98357290 35625,6950.109,96.105,573.606,570.341,0.0
55661.0,STARLINK-5475,PAYLOAD,2023-10-01 15:29:37,14.98373266,0.0002418,70.0,248.607,275.6765,84.4119,-0.00073987,-8.919e-05,0.0,0 STARLINK-5475,1 55661U 23021AK  23274.64557397 -.00008919  00000-0 -73987-3 0  9991,2 55661  70.0000 248.6070 0002418 275.6765  84.4119 14.98373266 35668,6950.059,96.104,573.605,570.244,0.0
55661.0,STARLINK-5475,PAYLOAD,2023-10-01 21:54:10,14.98327874,0.0002612,70.0005,247.9332,267.4778,92.6082,4.4263e-05,4.35e-06,0.0,0 STARLINK-5475,1 55661U 23021AK  23274.91262414  .00000435  00000-0  44263-4 0  9993,2 55661  70.0005 247.9332 0002612 267.4778  92.6082 14.98327874 36008,6950.199,96.107,573.88,570.249,0.0
55661.0,STARLINK-5475,PAYLOAD,2023-10-02 06:00:00,14.98331857,0.0002831,70.0016,247.0823,270.2551,109.1752,-0.0012134,-0.00014542,0.0,0 STARLINK-5475,1 55661U 23021AK  23275.25001157 -.00014542  00000-0 -12134-2 0  9992,2 55661  70.0016 247.0823 0002831 270.2551 109.1752 14.98331857 35755,6950.187,96.107,574.02,570.085,0.0
55661.0,STARLINK-5475,PAYLOAD,2023-10-02 15:31:39,14.9832741,0.0002583,69.9998,246.0831,271.0476,89.0387,-2.4299e-05,-3.83e-06,0.0,0 STARLINK-5475,1 55661U 23021AK  23275.64698728 -.00000383  00000-0 -24299-4 0  9996,2 55661  69.9998 246.0831 0002583 271.0476  89.0387 14.98327410 36119,6950.201,96.107,573.861,570.271,0.0
55661.0,STARLINK-5475,PAYLOAD,2023-10-03 04:20:43,14.98332785,0.0002692,69.9993,244.7359,269.1499,90.9351,1.0219e-05,2.9e-07,0.0,0 STARLINK-5475,1 55661U 23021AK  23276.18106279  .00000029  00000-0  10219-4 0  9993,2 55661  69.9993 244.7359 0002692 269.1499  90.9351 14.98332785 35895,6950.184,96.107,573.92,570.178,0.0
55661.0,STARLINK-5475,PAYLOAD,2023-10-03 07:32:59,14.98332395,0.0002763,69.9993,244.3993,270.0969,89.9874,1.6732e-05,1.07e-06,0.0,0 STARLINK-5475,1 55661U 23021AK  23276.31458264  .00000107  00000-0  16732-4 0  9995,2 55661  69.9993 244.3993 0002763 270.0969  89.9874 14.98332395 36219,6950.185,96.107,573.971,570.13,0.0
55661.0,STARLINK-5475,PAYLOAD,2023-10-03 15:33:40,14.98332224,0.0002918,69.9989,243.5569,266.7435,93.339,-4.5735e-05,-6.39e-06,0.0,0 STARLINK-5475,1 55661U 23021AK  23276.64838300 -.00000639  00000-0 -45735-4 0  9991,2 55661  69.9989 243.5569 0002918 266.7435  93.3390 14.98332224 36264,6950.186,96.107,574.079,570.023,0.0
55661.0,STARLINK-5475,PAYLOAD,2023-10-04 07:35:00,14.9833231,0.0003023,69.9991,241.8736,270.5512,89.53,5.9274e-05,6.14e-06,0.0,0 STARLINK-5475,1 55661U 23021AK  23277.31598116  .00000614  00000-0  59274-4 0  9998,2 55661  69.9991 241.8736 0003023 270.5512  89.5300 14.98332310 36063,6950.186,96.107,574.152,569.95,0.0
55661.0,STARLINK-5475,PAYLOAD,2023-10-04 15:35:41,14.98330827,0.0002727,69.9997,241.031,262.0828,98.0021,-1.2202e-05,-2.39e-06,0.0,0 STARLINK-5475,1 55661U 23021AK  23277.64978322 -.00000239  00000-0 -12202-4 0  9990,2 55661  69.9997 241.0310 0002727 262.0828  98.0021 14.98330827 36410,6950.19,96.107,573.951,570.16,0.0
55661.0,STARLINK-5475,PAYLOAD,2023-10-05 07:37:01,14.98332983,0.0002607,70.0002,239.3496,268.9734,91.1126,7.2288e-05,7.7e-06,0.0,0 STARLINK-5475,1 55661U 23021AK  23278.31738063  .00000770  00000-0  72288-4 0  9999,2 55661  70.0002 239.3496 0002607 268.9734  91.1126 14.98332983 36216,6950.184,96.107,573.861,570.237,0.0
55661.0,STARLINK-5475,PAYLOAD,2023-10-05 22:02:14,14.98329418,0.0002665,70.0005,237.8347,271.8287,88.2567,5.1742e-05,5.24e-06,0.0,0 STARLINK-5475,1 55661U 23021AK  23278.91822187  .00000524  00000-0  51742-4 0  9995,2 55661  70.0005 237.8347 0002665 271.8287  88.2567 14.98329418 36605,6950.195,96.107,573.912,570.207,0.0
